[{"OBJECT_NAME":"STARLINK-31132","OBJECT_ID":"2024-011N","EPOCH":"2025-10-24T17:36:47.389248","MEAN_MOTION":15.30197638,"ECCENTRICITY":9.69e-5,"INCLINATION":53.1607,"RA_OF_ASC_NODE":195.037,"ARG_OF_PERICENTER":75.881,"MEAN_ANOMALY":284.2298,"EPHEMERIS_TYPE":0,"CLASSIFICATION_TYPE":"U","NORAD_CAT_ID":58777,"ELEMENT_SET_NO":999,"REV_AT_EPOCH":10074,"BSTAR":3.6378e-5,"MEAN_MOTION_DOT":7.18e-6,"MEAN_MOTION_DDOT":0},{"OBJECT_NAME":"STARLINK-31120","OBJECT_ID":"2024-011P","EPOCH":"2025-10-24T16:38:52.942848","MEAN_MOTION":15.30189454,"ECCENTRICITY":0.0001286,"INCLINATION":53.1599,"RA_OF_ASC_NODE":285.7125,"ARG_OF_PERICENTER":84.2209,"MEAN_ANOMALY":275.8939,"EPHEMERIS_TYPE":0,"CLASSIFICATION_TYPE":"U","NORAD_CAT_ID":58778,"ELEMENT_SET_NO":999,"REV_AT_EPOCH":9944,"BSTAR":0.00011563,"MEAN_MOTION_DOT":3.066e-5,"MEAN_MOTION_DDOT":0},{"OBJECT_NAME":"STARLINK-31142","OBJECT_ID":"2024-011Q","EPOCH":"2025-10-24T16:17:37.080960","MEAN_MOTION":15.30189039,"ECCENTRICITY":0.0001182,"INCLINATION":53.1601,"RA_OF_ASC_NODE":285.6231,"ARG_OF_PERICENTER":97.7224,"MEAN_ANOMALY":262.3911,"EPHEMERIS_TYPE":0,"CLASSIFICATION_TYPE":"U","NORAD_CAT_ID":58779,"ELEMENT_SET_NO":999,"REV_AT_EPOCH":9944,"BSTAR":3.4002e-5,"MEAN_MOTION_DOT":6.48e-6,"MEAN_MOTION_DDOT":0},{"OBJECT_NAME":"STARLINK-31099","OBJECT_ID":"2024-011S","EPOCH":"2025-10-24T16:13:02.727264","MEAN_MOTION":15.30192211,"ECCENTRICITY":0.0001316,"INCLINATION":53.1597,"RA_OF_ASC_NODE":285.6006,"ARG_OF_PERICENTER":91.1427,"MEAN_ANOMALY":268.9724,"EPHEMERIS_TYPE":0,"CLASSIFICATION_TYPE":"U","NORAD_CAT_ID":58781,"ELEMENT_SET_NO":999,"REV_AT_EPOCH":9944,"BSTAR":4.6837e-5,"MEAN_MOTION_DOT":1.028e-5,"MEAN_MOTION_DDOT":0},{"OBJECT_NAME":"STARLINK-31060","OBJECT_ID":"2024-011T","EPOCH":"2025-10-24T20:00:03.000384","MEAN_MOTION":15.59887478,"ECCENTRICITY":0.0012835,"INCLINATION":53.1493,"RA_OF_ASC_NODE":150.2125,"ARG_OF_PERICENTER":218.4442,"MEAN_ANOMALY":16.1378,"EPHEMERIS_TYPE":0,"CLASSIFICATION_TYPE":"U","NORAD_CAT_ID":58782,"ELEMENT_SET_NO":999,"REV_AT_EPOCH":590,"BSTAR":0.0051335,"MEAN_MOTION_DOT":0.00445418,"MEAN_MOTION_DDOT":0},{"OBJECT_NAME":"STARLINK-31047","OBJECT_ID":"2024-011U","EPOCH":"2025-10-24T15:28:50.342304","MEAN_MOTION":15.30188683,"ECCENTRICITY":0.0001496,"INCLINATION":53.1622,"RA_OF_ASC_NODE":270.0433,"ARG_OF_PERICENTER":99.9011,"MEAN_ANOMALY":260.2158,"EPHEMERIS_TYPE":0,"CLASSIFICATION_TYPE":"U","NORAD_CAT_ID":58783,"ELEMENT_SET_NO":999,"REV_AT_EPOCH":9966,"BSTAR":2.2194e-5,"MEAN_MOTION_DOT":2.98e-6,"MEAN_MOTION_DDOT":0},{"OBJECT_NAME":"STARLINK-31039","OBJECT_ID":"2024-011V","EPOCH":"2025-10-24T09:47:42.971136","MEAN_MOTION":15.3019314,"ECCENTRICITY":0.0001349,"INCLINATION":53.1591,"RA_OF_ASC_NODE":286.7745,"ARG_OF_PERICENTER":107.07,"MEAN_ANOMALY":253.0449,"EPHEMERIS_TYPE":0,"CLASSIFICATION_TYPE":"U","NORAD_CAT_ID":58784,"ELEMENT_SET_NO":999,"REV_AT_EPOCH":9940,"BSTAR":4.3255e-5,"MEAN_MOTION_DOT":9.22e-6,"MEAN_MOTION_DDOT":0},{"OBJECT_NAME":"STARLINK-31034","OBJECT_ID":"2024-011W","EPOCH":"2025-10-24T17:20:57.666624","MEAN_MOTION":15.30182108,"ECCENTRICITY":8.65e-5,"INCLINATION":53.1591,"RA_OF_ASC_NODE":182.8631,"ARG_OF_PERICENTER":93.8274,"MEAN_ANOMALY":266.2826,"EPHEMERIS_TYPE":0,"CLASSIFICATION_TYPE":"U","NORAD_CAT_ID":58785,"ELEMENT_SET_NO":999,"REV_AT_EPOCH":10091,"BSTAR":0.00020106,"MEAN_MOTION_DOT":5.597e-5,"MEAN_MOTION_DDOT":0},{"OBJECT_NAME":"STARLINK-31024","OBJECT_ID":"2024-011X","EPOCH":"2025-10-24T16:10:46.407072","MEAN_MOTION":15.3018886,"ECCENTRICITY":0.0001311,"INCLINATION":53.1593,"RA_OF_ASC_NODE":283.4834,"ARG_OF_PERICENTER":94.436,"MEAN_ANOMALY":265.679,"EPHEMERIS_TYPE":0,"CLASSIFICATION_TYPE":"U","NORAD_CAT_ID":58786,"ELEMENT_SET_NO":999,"REV_AT_EPOCH":9947,"BSTAR":2.9547e-5,"MEAN_MOTION_DOT":5.16e-6,"MEAN_MOTION_DDOT":0},{"OBJECT_NAME":"STARLINK-31189","OBJECT_ID":"2024-012A","EPOCH":"2025-10-24T18:33:59.463360","MEAN_MOTION":15.27575039,"ECCENTRICITY":0.0001086,"INCLINATION":43.0008,"RA_OF_ASC_NODE":212.4669,"ARG_OF_PERICENTER":272.9927,"MEAN_ANOMALY":87.0801,"EPHEMERIS_TYPE":0,"CLASSIFICATION_TYPE":"U","NORAD_CAT_ID":58787,"ELEMENT_SET_NO":999,"REV_AT_EPOCH":10045,"BSTAR":-3.1302e-5,"MEAN_MOTION_DOT":-1.123e-5,"MEAN_MOTION_DDOT":0},{"OBJECT_NAME":"STARLINK-31185","OBJECT_ID":"2024-012B","EPOCH":"2025-10-24T12:04:36.435072","MEAN_MOTION":15.27582319,"ECCENTRICITY":0.0001084,"INCLINATION":43.0024,"RA_OF_ASC_NODE":214.7381,"ARG_OF_PERICENTER":274.9101,"MEAN_ANOMALY":85.1627,"EPHEMERIS_TYPE":0,"CLASSIFICATION_TYPE":"U","NORAD_CAT_ID":58788,"ELEMENT_SET_NO":999,"REV_AT_EPOCH":10040,"BSTAR":4.9952e-5,"MEAN_MOTION_DOT":1.113e-5,"MEAN_MOTION_DDOT":0},{"OBJECT_NAME":"STARLINK-31166","OBJECT_ID":"2024-012C","EPOCH":"2025-10-24T18:58:02.130816","MEAN_MOTION":15.27573835,"ECCENTRICITY":7.63e-5,"INCLINATION":42.9954,"RA_OF_ASC_NODE":212.5817,"ARG_OF_PERICENTER":295.2759,"MEAN_ANOMALY":64.8014,"EPHEMERIS_TYPE":0,"CLASSIFICATION_TYPE":"U","NORAD_CAT_ID":58789,"ELEMENT_SET_NO":999,"REV_AT_EPOCH":10045,"BSTAR":5.1969e-6,"MEAN_MOTION_DOT":-1.19e-6,"MEAN_MOTION_DDOT":0},{"OBJECT_NAME":"STARLINK-31187","OBJECT_ID":"2024-012D","EPOCH":"2025-10-24T12:02:46.078080","MEAN_MOTION":15.27574122,"ECCENTRICITY":8.23e-5,"INCLINATION":43.0031,"RA_OF_ASC_NODE":214.7281,"ARG_OF_PERICENTER":274.2848,"MEAN_ANOMALY":85.7909,"EPHEMERIS_TYPE":0,"CLASSIFICATION_TYPE":"U","NORAD_CAT_ID":58790,"ELEMENT_SET_NO":999,"REV_AT_EPOCH":10040,"BSTAR":-3.3688e-6,"MEAN_MOTION_DOT":-3.55e-6,"MEAN_MOTION_DDOT":0},{"OBJECT_NAME":"STARLINK-31162","OBJECT_ID":"2024-012E","EPOCH":"2025-10-24T11:05:23.699040","MEAN_MOTION":15.27582635,"ECCENTRICITY":0.0001155,"INCLINATION":43.0009,"RA_OF_ASC_NODE":214.4295,"ARG_OF_PERICENTER":275.5083,"MEAN_ANOMALY":84.5637,"EPHEMERIS_TYPE":0,"CLASSIFICATION_TYPE":"U","NORAD_CAT_ID":58791,"ELEMENT_SET_NO":999,"REV_AT_EPOCH":10040,"BSTAR":1.339e-5,"MEAN_MOTION_DOT":1.06e-6,"MEAN_MOTION_DDOT":0},{"OBJECT_NAME":"STARLINK-31184","OBJECT_ID":"2024-012G","EPOCH":"2025-10-24T18:48:46.863072","MEAN_MOTION":15.27583098,"ECCENTRICITY":4.97e-5,"INCLINATION":42.997,"RA_OF_ASC_NODE":212.5409,"ARG_OF_PERICENTER":332.8977,"MEAN_ANOMALY":27.1848,"EPHEMERIS_TYPE":0,"CLASSIFICATION_TYPE":"U","NORAD_CAT_ID":58793,"ELEMENT_SET_NO":999,"REV_AT_EPOCH":10045,"BSTAR":7.866e-5,"MEAN_MOTION_DOT":1.904e-5,"MEAN_MOTION_DDOT":0},{"OBJECT_NAME":"STARLINK-31192","OBJECT_ID":"2024-012H","EPOCH":"2025-10-24T18:15:41.671872","MEAN_MOTION":15.27564872,"ECCENTRICITY":0.0001108,"INCLINATION":43.0031,"RA_OF_ASC_NODE":213.2277,"ARG_OF_PERICENTER":278.7969,"MEAN_ANOMALY":81.2757,"EPHEMERIS_TYPE":0,"CLASSIFICATION_TYPE":"U","NORAD_CAT_ID":58794,"ELEMENT_SET_NO":999,"REV_AT_EPOCH":10044,"BSTAR":9.356e-5,"MEAN_MOTION_DOT":2.312e-5,"MEAN_MOTION_DDOT":0},{"OBJECT_NAME":"STARLINK-31161","OBJECT_ID":"2024-012J","EPOCH":"2025-10-24T18:52:29.115840","MEAN_MOTION":15.27572975,"ECCENTRICITY":7.29e-5,"INCLINATION":42.9959,"RA_OF_ASC_NODE":212.557,"ARG_OF_PERICENTER":280.0915,"MEAN_ANOMALY":79.9854,"EPHEMERIS_TYPE":0,"CLASSIFICATION_TYPE":"U","NORAD_CAT_ID":58795,"ELEMENT_SET_NO":999,"REV_AT_EPOCH":10045,"BSTAR":1.0338e-5,"MEAN_MOTION_DOT":2.3e-7,"MEAN_MOTION_DDOT":0}]
