STARLINK-31132          
1 58777U 24011N   25297.73388182  .00000718  00000+0  36378-4 0  9993
2 58777  53.1607 195.0370 0000969  75.8810 284.2298 15.30197638100746
STARLINK-31120          
1 58778U 24011P   25297.69366832  .00003066  00000+0  11563-3 0  9994
2 58778  53.1599 285.7125 0001286  84.2209 275.8939 15.30189454 99440
STARLINK-31142          
1 58779U 24011Q   25297.67890140  .00000648  00000+0  34002-4 0  9994
2 58779  53.1601 285.6231 0001182  97.7224 262.3911 15.30189039 99443
STARLINK-31099          
1 58781U 24011S   25297.67572601  .00001028  00000+0  46837-4 0  9998
2 58781  53.1597 285.6006 0001316  91.1427 268.9724 15.30192211 99442
STARLINK-31060          
1 58782U 24011T   25297.83336806  .00445418  00000+0  51335-2 0  9994
2 58782  53.1493 150.2125 0012835 218.4442  16.1378 15.59887478  5909
STARLINK-31047          
1 58783U 24011U   25297.64502711  .00000298  00000+0  22194-4 0  9990
2 58783  53.1622 270.0433 0001496  99.9011 260.2158 15.30188683 99667
STARLINK-31039          
1 58784U 24011V   25297.40813624  .00000922  00000+0  43255-4 0  9998
2 58784  53.1591 286.7745 0001349 107.0700 253.0449 15.30193140 99405
STARLINK-31034          
1 58785U 24011W   25297.72288966  .00005597  00000+0  20106-3 0  9991
2 58785  53.1591 182.8631 0000865  93.8274 266.2826 15.30182108100912
STARLINK-31024          
1 58786U 24011X   25297.67414823  .00000516  00000+0  29547-4 0  9994
2 58786  53.1593 283.4834 0001311  94.4360 265.6790 15.30188860 99470
STARLINK-31189          
1 58787U 24012A   25297.77360490 -.00001123  00000+0 -31302-4 0  9996
2 58787  43.0008 212.4669 0001086 272.9927  87.0801 15.27575039100453
STARLINK-31185          
1 58788U 24012B   25297.50319948  .00001113  00000+0  49952-4 0  9997
2 58788  43.0024 214.7381 0001084 274.9101  85.1627 15.27582319100401
STARLINK-31166          
1 58789U 24012C   25297.79030244 -.00000119  00000+0  51969-5 0  9996
2 58789  42.9954 212.5817 0000763 295.2759  64.8014 15.27573835100452
STARLINK-31187          
1 58790U 24012D   25297.50192220 -.00000355  00000+0 -33688-5 0  9991
2 58790  43.0031 214.7281 0000823 274.2848  85.7909 15.27574122100404
STARLINK-31162          
1 58791U 24012E   25297.46207985  .00000106  00000+0  13390-4 0  9991
2 58791  43.0009 214.4295 0001155 275.5083  84.5637 15.27582635100409
STARLINK-31184          
1 58793U 24012G   25297.78387573  .00001904  00000+0  78660-4 0  9998
2 58793  42.9970 212.5409 0000497 332.8977  27.1848 15.27583098100455
STARLINK-31192          
1 58794U 24012H   25297.76089898  .00002312  00000+0  93560-4 0  9996
2 58794  43.0031 213.2277 0001108 278.7969  81.2757 15.27564872100444
STARLINK-31161          
1 58795U 24012J   25297.78644810  .00000023  00000+0  10338-4 0  9999
2 58795  42.9959 212.5570 0000729 280.0915  79.9854 15.27572975100451
